0 COSMOS 1745
1 16727U 86037A   13282.16747694  .00000065  00000-0  52659-4 0  1249
2 16727 082.9549 286.2115 0032199 156.4611 257.8537 13.74076542372979
0 COSMOS 1745
1 16727U 86037A   13283.50048223  .00000072  00000-0  59547-4 0  1252
2 16727 082.9548 285.2272 0032280 152.8317 011.7141 13.74076785373153
0 COSMOS 1745
1 16727U 86037A   13285.60494745  .00000051  00000-0  37281-4 0  1279
2 16727 082.9546 283.6732 0032412 147.2161 341.5745 13.74077185373447
0 COSMOS 1745
1 16727U 86037A   13286.62691185  .00000043  00000-0  29261-4 0  1280
2 16727 082.9547 282.9185 0032457 144.4470 356.8243 13.74077354373588
0 COSMOS 1745
1 16727U 86037A   13288.13828927  .00000031  00000-0  16541-4 0  1299
2 16727 082.9550 281.8023 0032512 140.3301 273.0272 13.74077528373799
0 COSMOS 1745
1 16727U 86037A   13289.15669800  .00000030  00000-0  15530-4 0  1303
2 16727 082.9551 281.0502 0032559 137.5924 270.6685 13.74077676373935
0 COSMOS 1745
1 16727U 86037A   13290.48921696  .00000040  00000-0  26382-4 0  1314
2 16727 082.9554 280.0660 0032614 134.0712 022.0214 13.74077686374110
0 COSMOS 1745
1 16727U 86037A   13291.50703900  .00000048  00000-0  34938-4 0  1329
2 16727 082.9556 279.3144 0032649 131.2794 016.8171 13.74077658374254
0 COSMOS 1745
1 16727U 86037A   13292.59721167  .00000064  00000-0  51269-4 0  1339
2 16727 082.9557 278.5094 0032682 128.3769 009.4177 13.74077634374401
0 COSMOS 1745
1 16727U 86037A   13294.10928605  .00000069  00000-0  57192-4 0  1341
2 16727 082.9558 277.3929 0032715 124.3882 288.9414 13.74077660374615
0 COSMOS 1745
1 16727U 86037A   13295.12771683  .00000076  00000-0  64044-4 0  1359
2 16727 082.9559 276.6410 0032734 121.6611 286.6820 13.74077738374751
